NORAD_CAT_ID,OBJECT_NAME,OBJECT_TYPE,EPOCH,MEAN_MOTION,ECCENTRICITY,INCLINATION,RA_OF_ASC_NODE,ARG_OF_PERICENTER,MEAN_ANOMALY,BSTAR,MEAN_MOTION_DOT,MEAN_MOTION_DDOT,TLE_LINE0,TLE_LINE1,TLE_LINE2,SEMIMAJOR_AXIS,PERIOD,APOGEE,PERIGEE,DECAYED
49766.0,STARLINK-3190,PAYLOAD,2023-11-16 10:12:18,15.08839414,0.000168,53.2174,329.1821,87.5695,272.5489,0.00015268,2.143e-05,0.0,0 STARLINK-3190,1 49766U 21115AU  23320.42521520  .00002143  00000-0  15268-3 0  9998,2 49766  53.2174 329.1821 0001680  87.5695 272.5489 15.08839414108220,6917.882,95.438,540.909,538.585,0.0
49766.0,STARLINK-3190,PAYLOAD,2023-11-16 18:09:14,15.08839294,0.0001504,53.2169,327.6952,88.8199,271.2966,0.00010279,1.348e-05,0.0,0 STARLINK-3190,1 49766U 21115AU  23320.75641514  .00001348  00000-0  10279-3 0  9993,2 49766  53.2169 327.6952 0001504  88.8199 271.2966 15.08839294109380,6917.883,95.438,540.788,538.707,0.0
49766.0,STARLINK-3190,PAYLOAD,2023-11-17 06:52:19,15.08844937,0.0001604,53.2174,325.3154,94.6482,265.4694,0.00011832,1.596e-05,0.0,0 STARLINK-3190,1 49766U 21115AU  23321.28633313  .00001596  00000-0  11832-3 0  9991,2 49766  53.2174 325.3154 0001604  94.6482 265.4694 15.08844937108355,6917.865,95.437,540.84,538.621,0.0
49766.0,STARLINK-3190,PAYLOAD,2023-11-17 18:00:00,15.08849711,0.0001615,53.218,323.234,96.5425,263.5751,0.00022573,3.307e-05,0.0,0 STARLINK-3190,1 49766U 21115AU  23321.75000964  .00003307  00000-0  22573-3 0  9999,2 49766  53.2180 323.2340 0001615  96.5425 263.5751 15.08849711108422,6917.851,95.437,540.833,538.598,0.0
49766.0,STARLINK-3190,PAYLOAD,2023-11-18 09:53:50,15.08865779,0.0001552,53.2173,320.2605,95.9141,264.2028,0.00037592,5.704e-05,0.0,0 STARLINK-3190,1 49766U 21115AU  23322.41239568  .00005704  00000-0  37592-3 0  9997,2 49766  53.2173 320.2605 0001552  95.9141 264.2028 15.08865779109634,6917.802,95.436,540.74,538.593,0.0
49766.0,STARLINK-3190,PAYLOAD,2023-11-19 03:23:07,15.08829799,0.000136,53.2172,316.9906,107.1871,252.927,-0.00014679,-2.623e-05,0.0,0 STARLINK-3190,1 49766U 21115AU  23323.14105333 -.00002623  00000-0 -14679-3 0  9990,2 49766  53.2172 316.9906 0001360 107.1871 252.9270 15.08829799109749,6917.912,95.438,540.717,538.836,0.0
49766.0,STARLINK-3190,PAYLOAD,2023-11-19 09:44:39,15.08833293,0.0001259,53.2176,315.8001,93.4804,266.6333,-9.955e-05,-1.872e-05,0.0,0 STARLINK-3190,1 49766U 21115AU  23323.40601413 -.00001872  00000-0 -99550-4 0  9996,2 49766  53.2176 315.8001 0001259  93.4804 266.6333 15.08833293108674,6917.901,95.438,540.637,538.895,0.0
49766.0,STARLINK-3190,PAYLOAD,2023-11-19 16:06:12,15.08833424,0.0001221,53.2173,314.6116,92.2622,267.851,-9.5036e-05,-1.8e-05,0.0,0 STARLINK-3190,1 49766U 21115AU  23323.67097306 -.00001800  00000-0 -95036-4 0  9991,2 49766  53.2173 314.6116 0001221  92.2622 267.8510 15.08833424108710,6917.9,95.438,540.61,538.921,0.0
49766.0,STARLINK-3190,PAYLOAD,2023-11-20 03:13:54,15.08837302,0.0001243,53.2176,312.5298,93.1536,266.9599,6.5588e-05,7.56e-06,0.0,0 STARLINK-3190,1 49766U 21115AU  23324.13465419  .00000756  00000-0  65588-4 0  9993,2 49766  53.2176 312.5298 0001243  93.1536 266.9599 15.08837302109895,6917.889,95.438,540.614,538.894,0.0
49766.0,STARLINK-3190,PAYLOAD,2023-11-20 11:10:49,15.08845029,0.0001231,53.2175,311.0433,92.3842,267.7291,0.00051495,7.918e-05,0.0,0 STARLINK-3190,1 49766U 21115AU  23324.46585533  .00007918  00000-0  51495-3 0  9997,2 49766  53.2175 311.0433 0001231  92.3842 267.7291 15.08845029108833,6917.865,95.437,540.582,538.878,0.0
49766.0,STARLINK-3190,PAYLOAD,2023-11-20 15:56:59,15.08841703,0.0001146,53.2169,310.1513,91.619,268.4933,0.00049351,7.575e-05,0.0,0 STARLINK-3190,1 49766U 21115AU  23324.66457782  .00007575  00000-0  49351-3 0  9990,2 49766  53.2169 310.1513 0001146  91.6190 268.4933 15.08841703108867,6917.875,95.437,540.533,538.947,0.0
49766.0,STARLINK-3190,PAYLOAD,2023-11-21 07:50:50,15.08847254,0.0001258,53.2173,307.1778,90.3815,269.7321,0.00038706,5.879e-05,0.0,0 STARLINK-3190,1 49766U 21115AU  23325.32697648  .00005879  00000-0  38706-3 0  9998,2 49766  53.2173 307.1778 0001258  90.3815 269.7321 15.08847254110073,6917.858,95.437,540.593,538.853,0.0
49766.0,STARLINK-3190,PAYLOAD,2023-11-22 02:55:28,15.08839237,0.0001397,53.218,303.6104,87.0016,273.1137,8.0106e-05,9.87e-06,0.0,0 STARLINK-3190,1 49766U 21115AU  23326.12185983  .00000987  00000-0  80106-4 0  9998,2 49766  53.2180 303.6104 0001397  87.0016 273.1137 15.08839237110194,6917.883,95.438,540.714,538.781,0.0
49766.0,STARLINK-3190,PAYLOAD,2023-11-22 07:41:37,15.0885241,0.0001529,53.2173,302.7165,82.606,277.5106,0.00033683,5.079e-05,0.0,0 STARLINK-3190,1 49766U 21115AU  23326.32057601  .00005079  00000-0  33683-3 0  9999,2 49766  53.2173 302.7165 0001529  82.6060 277.5106 15.08852410110226,6917.842,95.437,540.765,538.65,0.0
49766.0,STARLINK-3190,PAYLOAD,2023-11-23 02:46:15,15.08847196,0.0001766,53.2169,299.1485,77.2731,282.8458,0.00025345,3.749e-05,0.0,0 STARLINK-3190,1 49766U 21115AU  23327.11545798  .00003749  00000-0  25345-3 0  9994,2 49766  53.2169 299.1485 0001766  77.2731 282.8458 15.08847196110340,6917.858,95.437,540.945,538.502,0.0
49766.0,STARLINK-3190,PAYLOAD,2023-11-23 05:57:01,15.08851469,0.000175,53.2173,298.5506,79.4319,280.687,0.00034064,5.139e-05,0.0,0 STARLINK-3190,1 49766U 21115AU  23327.24793546  .00005139  00000-0  34064-3 0  9997,2 49766  53.2173 298.5506 0001750  79.4319 280.6870 15.08851469109251,6917.845,95.437,540.921,538.5,0.0
49766.0,STARLINK-3190,PAYLOAD,2023-11-23 21:50:53,15.08833118,0.0001544,53.2172,295.5781,106.9587,253.1575,-0.00010519,-1.961e-05,0.0,0 STARLINK-3190,1 49766U 21115AU  23327.91034084 -.00001961  00000-0 -10519-3 0  9996,2 49766  53.2172 295.5781 0001544 106.9587 253.1575 15.08833118109355,6917.901,95.438,540.835,538.698,0.0
49766.0,STARLINK-3190,PAYLOAD,2023-11-24 02:37:03,15.088349,0.0001802,53.2174,294.6876,97.4986,262.6211,-2.126e-05,-6.26e-06,0.0,0 STARLINK-3190,1 49766U 21115AU  23328.10906316 -.00000626  00000-0 -21260-4 0  9997,2 49766  53.2174 294.6876 0001802  97.4986 262.6211 15.08834900110495,6917.896,95.438,541.008,538.514,0.0
49766.0,STARLINK-3190,PAYLOAD,2023-11-24 07:23:12,15.08840207,0.0001641,53.2166,293.7944,97.1754,262.9425,0.00010014,1.306e-05,0.0,0 STARLINK-3190,1 49766U 21115AU  23328.30778163  .00001306  00000-0  10014-3 0  9994,2 49766  53.2166 293.7944 0001641  97.1754 262.9425 15.08840207109410,6917.88,95.438,540.88,538.61,0.0
49766.0,STARLINK-3190,PAYLOAD,2023-11-24 21:41:40,15.08837518,0.0002106,53.2178,291.1175,123.1832,236.9362,6.6274e-05,7.67e-06,0.0,0 STARLINK-3190,1 49766U 21115AU  23328.90394570  .00000767  00000-0  66274-4 0  9996,2 49766  53.2178 291.1175 0002106 123.1832 236.9362 15.08837518109507,6917.888,95.438,541.21,538.296,0.0
49766.0,STARLINK-3190,PAYLOAD,2023-11-25 04:03:13,15.08842029,0.0001986,53.217,289.9338,85.4892,274.6327,0.00020011,2.898e-05,0.0,0 STARLINK-3190,1 49766U 21115AU  23329.16890631  .00002898  00000-0  20011-3 0  9999,2 49766  53.2170 289.9338 0001986  85.4892 274.6327 15.08842029110657,6917.874,95.437,541.113,538.365,0.0
49766.0,STARLINK-3190,PAYLOAD,2023-11-25 07:13:59,15.08854159,0.0001694,53.2174,289.3317,104.1767,255.9413,0.00044664,6.83e-05,0.0,0 STARLINK-3190,1 49766U 21115AU  23329.30138068  .00006830  00000-0  44664-3 0  9994,2 49766  53.2174 289.3317 0001694 104.1767 255.9413 15.08854159109561,6917.837,95.437,540.874,538.53,0.0
49766.0,STARLINK-3190,PAYLOAD,2023-11-25 21:32:27,15.08853043,0.0002363,53.2181,286.6509,133.7658,226.353,0.0003739,5.67e-05,0.0,0 STARLINK-3190,1 49766U 21115AU  23329.89754061  .00005670  00000-0  37390-3 0  9994,2 49766  53.2181 286.6509 0002363 133.7658 226.3530 15.08853043109656,6917.841,95.437,541.34,538.071,0.0
49766.0,STARLINK-3190,PAYLOAD,2023-11-26 07:04:45,15.08880296,0.0001874,53.2177,284.8722,102.0381,258.0821,0.0011808,0.00018575,0.0,0 STARLINK-3190,1 49766U 21115AU  23330.29497198  .00018575  00000-0  11808-2 0  9998,2 49766  53.2177 284.8722 0001874 102.0381 258.0821 15.08880296109718,6917.757,95.435,540.919,538.326,0.0
49766.0,STARLINK-3190,PAYLOAD,2023-11-26 21:23:14,15.08819672,0.0001643,53.2182,282.1957,116.5216,243.5944,-0.0004741,-7.821e-05,0.0,0 STARLINK-3190,1 49766U 21115AU  23330.89114364 -.00007821  00000-0 -47410-3 0  9998,2 49766  53.2182 282.1957 0001643 116.5216 243.5944 15.08819672109801,6917.943,95.439,540.944,538.671,0.0
49766.0,STARLINK-3190,PAYLOAD,2023-11-27 03:44:47,15.08817048,0.00019,53.2178,281.005,121.6079,238.5098,-0.00047349,-7.811e-05,0.0,0 STARLINK-3190,1 49766U 21115AU  23331.15611067 -.00007811  00000-0 -47349-3 0  9990,2 49766  53.2178 281.0050 0001900 121.6079 238.5098 15.08817048110955,6917.951,95.439,541.13,538.501,0.0
49766.0,STARLINK-3190,PAYLOAD,2023-11-27 06:55:34,15.08814742,0.0001896,53.2178,280.4106,123.2568,236.8606,-0.00043183,-7.149e-05,0.0,0 STARLINK-3190,1 49766U 21115AU  23331.28859340 -.00007149  00000-0 -43183-3 0  9998,2 49766  53.2178 280.4106 0001896 123.2568 236.8606 15.08814742109867,6917.958,95.439,541.134,538.511,0.0
49766.0,STARLINK-3190,PAYLOAD,2023-11-28 02:00:11,15.08860082,0.0001884,53.2176,276.8419,115.2887,244.8301,0.00049565,7.613e-05,0.0,0 STARLINK-3190,1 49766U 21115AU  23332.08346156  .00007613  00000-0  49565-3 0  9997,2 49766  53.2176 276.8419 0001884 115.2887 244.8301 15.08860082111090,6917.819,95.436,540.987,538.381,0.0
49766.0,STARLINK-3190,PAYLOAD,2023-11-28 06:46:20,15.08860781,0.0001797,53.2183,275.9504,110.3344,249.7842,0.00084359,0.00013171,0.0,0 STARLINK-3190,1 49766U 21115AU  23332.28218364  .00013171  00000-0  84359-3 0  9994,2 49766  53.2183 275.9504 0001797 110.3344 249.7842 15.08860781110011,6917.817,95.436,540.925,538.439,0.0
49766.0,STARLINK-3190,PAYLOAD,2023-11-29 01:50:59,15.08842058,0.0001847,53.2179,272.3824,116.9418,243.1763,0.00028068,4.182e-05,0.0,0 STARLINK-3190,1 49766U 21115AU  23333.07707185  .00004182  00000-0  28068-3 0  9993,2 49766  53.2179 272.3824 0001847 116.9418 243.1763 15.08842058111245,6917.874,95.437,541.017,538.461,0.0
